{"type": "FeatureCollection", "features": [ {"type": "Feature", "properties": {"norad_id": 58662, "name": "TIANMU-1 21", "group": "weather", "lat": 60.46748379330824, "lon": 86.67213453386137, "alt_km": 469.1783810222896, "timestamp": "2025-12-12T14:39:17.619126+00:00", "meta": {"OBJECT_NAME": "TIANMU-1 21", "OBJECT_ID": "2023-208C", "EPOCH": "2025-12-12T06:32:51.133920", "MEAN_MOTION": 15.31536295, "ECCENTRICITY": 0.00059132, "INCLINATION": 97.4369, "RA_OF_ASC_NODE": 99.664, "ARG_OF_PERICENTER": 262.1294, "MEAN_ANOMALY": 97.9276, "EPHEMERIS_TYPE": 0, "CLASSIFICATION_TYPE": "U", "NORAD_CAT_ID": 58662, "ELEMENT_SET_NO": 999, "REV_AT_EPOCH": 10892, "BSTAR": 0.00056122176, "MEAN_MOTION_DOT": 0.00017041, "MEAN_MOTION_DDOT": 0}, "tle": {"line1": "1 58662U 23208C   25346.27281405  .00017041  00000+0  56122-3 0  9992", "line2": "2 58662  97.4369  99.6640 0005913 262.1294  97.9276 15.31536295108925"}}, "geometry": {"type": "Point", "coordinates": [86.67213453386137, 60.46748379330824]}}, {"type": "Feature", "properties": {"norad_id": 58663, "name": "TIANMU-1 22", "group": "weather", "lat": -14.507781846340409, "lon": 99.64389615567704, "alt_km": 486.7537668144805, "timestamp": "2025-12-12T14:39:17.619136+00:00", "meta": {"OBJECT_NAME": "TIANMU-1 22", "OBJECT_ID": "2023-208D", "EPOCH": "2025-12-12T06:51:29.740032", "MEAN_MOTION": 15.27592697, "ECCENTRICITY": 0.0002697, "INCLINATION": 97.4377, "RA_OF_ASC_NODE": 97.3827, "ARG_OF_PERICENTER": 289.5362, "MEAN_ANOMALY": 70.5586, "EPHEMERIS_TYPE": 0, "CLASSIFICATION_TYPE": "U", "NORAD_CAT_ID": 58663, "ELEMENT_SET_NO": 999, "REV_AT_EPOCH": 10876, "BSTAR": 0.00046500271, "MEAN_MOTION_DOT": 0.00012481, "MEAN_MOTION_DDOT": 0}, "tle": {"line1": "1 58663U 23208D   25346.28576088  .00012481  00000+0  46500-3 0  9990", "line2": "2 58663  97.4377  97.3827 0002697 289.5362  70.5586 15.27592697108768"}}, "geometry": {"type": "Point", "coordinates": [99.64389615567704, -14.507781846340409]}}, {"type": "Feature", "properties": {"norad_id": 58700, "name": "TIANMU-1 15", "group": "weather", "lat": 62.62883581065636, "lon": 2.7483176691584004, "alt_km": 489.16574633931396, "timestamp": "2025-12-12T14:39:17.619145+00:00", "meta": {"OBJECT_NAME": "TIANMU-1 15", "OBJECT_ID": "2024-004A", "EPOCH": "2025-12-11T12:56:40.540704", "MEAN_MOTION": 15.24670451, "ECCENTRICITY": 0.00052437, "INCLINATION": 97.4631, "RA_OF_ASC_NODE": 167.0136, "ARG_OF_PERICENTER": 303.7498, "MEAN_ANOMALY": 56.324, "EPHEMERIS_TYPE": 0, "CLASSIFICATION_TYPE": "U", "NORAD_CAT_ID": 58700, "ELEMENT_SET_NO": 999, "REV_AT_EPOCH": 10716, "BSTAR": 0.00086402607, "MEAN_MOTION_DOT": 0.00021326, "MEAN_MOTION_DDOT": 0}, "tle": {"line1": "1 58700U 24004A   25345.53935811  .00021326  00000+0  86403-3 0  9991", "line2": "2 58700  97.4631 167.0136 0005243 303.7498  56.3240 15.24670451107164"}}, "geometry": {"type": "Point", "coordinates": [2.7483176691584004, 62.62883581065636]}}, {"type": "Feature", "properties": {"norad_id": 58701, "name": "TIANMU-1 16", "group": "weather", "lat": -18.0852665723864, "lon": -14.982060345641163, "alt_km": 498.09123912911673, "timestamp": "2025-12-12T14:39:17.619154+00:00", "meta": {"OBJECT_NAME": "TIANMU-1 16", "OBJECT_ID": "2024-004B", "EPOCH": "2025-12-12T07:29:11.548608", "MEAN_MOTION": 15.24425087, "ECCENTRICITY": 0.00044817, "INCLINATION": 97.4572, "RA_OF_ASC_NODE": 167.1723, "ARG_OF_PERICENTER": 298.3336, "MEAN_ANOMALY": 61.7449, "EPHEMERIS_TYPE": 0, "CLASSIFICATION_TYPE": "U", "NORAD_CAT_ID": 58701, "ELEMENT_SET_NO": 999, "REV_AT_EPOCH": 10728, "BSTAR": 0.00043296835, "MEAN_MOTION_DOT": 0.00010557, "MEAN_MOTION_DDOT": 0}, "tle": {"line1": "1 58701U 24004B   25346.31193922  .00010557  00000+0  43297-3 0  9996", "line2": "2 58701  97.4572 167.1723 0004481 298.3336  61.7449 15.24425087107282"}}, "geometry": {"type": "Point", "coordinates": [-14.982060345641163, -18.0852665723864]}}, {"type": "Feature", "properties": {"norad_id": 58702, "name": "TIANMU-1 17", "group": "weather", "lat": -75.37820275584983, "lon": -161.96790097027846, "alt_km": 497.3108172375587, "timestamp": "2025-12-12T14:39:17.619165+00:00", "meta": {"OBJECT_NAME": "TIANMU-1 17", "OBJECT_ID": "2024-004C", "EPOCH": "2025-12-12T07:07:01.659936", "MEAN_MOTION": 15.24469012, "ECCENTRICITY": 0.00036729, "INCLINATION": 97.4606, "RA_OF_ASC_NODE": 167.5668, "ARG_OF_PERICENTER": 302.4132, "MEAN_ANOMALY": 57.675, "EPHEMERIS_TYPE": 0, "CLASSIFICATION_TYPE": "U", "NORAD_CAT_ID": 58702, "ELEMENT_SET_NO": 999, "REV_AT_EPOCH": 10727, "BSTAR": 0.00040936123, "MEAN_MOTION_DOT": 9.989e-05, "MEAN_MOTION_DDOT": 0}, "tle": {"line1": "1 58702U 24004C   25346.29654699  .00009989  00000+0  40936-3 0  9991", "line2": "2 58702  97.4606 167.5668 0003672 302.4132  57.6750 15.24469012107279"}}, "geometry": {"type": "Point", "coordinates": [-161.96790097027846, -75.37820275584983]}}, {"type": "Feature", "properties": {"norad_id": 58703, "name": "TIANMU-1 18", "group": "weather", "lat": 13.968969747659074, "lon": 166.20638208820387, "alt_km": 492.8839273186586, "timestamp": "2025-12-12T14:39:17.619174+00:00", "meta": {"OBJECT_NAME": "TIANMU-1 18", "OBJECT_ID": "2024-004D", "EPOCH": "2025-12-12T08:17:30.950304", "MEAN_MOTION": 15.2445699, "ECCENTRICITY": 0.00030495, "INCLINATION": 97.4621, "RA_OF_ASC_NODE": 167.8108, "ARG_OF_PERICENTER": 302.3113, "MEAN_ANOMALY": 57.7829, "EPHEMERIS_TYPE": 0, "CLASSIFICATION_TYPE": "U", "NORAD_CAT_ID": 58703, "ELEMENT_SET_NO": 999, "REV_AT_EPOCH": 10728, "BSTAR": 0.00040869872, "MEAN_MOTION_DOT": 9.968e-05, "MEAN_MOTION_DDOT": 0}, "tle": {"line1": "1 58703U 24004D   25346.34549711  .00009968  00000+0  40870-3 0  9990", "line2": "2 58703  97.4621 167.8108 0003049 302.3113  57.7829 15.24456990107285"}}, "geometry": {"type": "Point", "coordinates": [166.20638208820387, 13.968969747659074]}}, {"type": "Feature", "properties": {"norad_id": 58990, "name": "INSAT-3DS", "group": "weather", "lat": -0.019462411607713274, "lon": 23.466428937524093, "alt_km": 35788.790617866645, "timestamp": "2025-12-12T14:39:17.619183+00:00", "meta": {"OBJECT_NAME": "INSAT-3DS", "OBJECT_ID": "2024-033A", "EPOCH": "2025-12-12T03:35:51.342720", "MEAN_MOTION": 1.00272558, "ECCENTRICITY": 0.00013519, "INCLINATION": 0.0397, "RA_OF_ASC_NODE": 135.7539, "ARG_OF_PERICENTER": 127.2447, "MEAN_ANOMALY": 314.1455, "EPHEMERIS_TYPE": 0, "CLASSIFICATION_TYPE": "U", "NORAD_CAT_ID": 58990, "ELEMENT_SET_NO": 999, "REV_AT_EPOCH": 4519, "BSTAR": 0, "MEAN_MOTION_DOT": -1.47e-06, "MEAN_MOTION_DDOT": 0}, "tle": {"line1": "1 58990U 24033A   25346.14989980 -.00000147  00000+0  00000+0 0  9992", "line2": "2 58990   0.0397 135.7539 0001351 127.2447 314.1455  1.00272558 45194"}}, "geometry": {"type": "Point", "coordinates": [23.466428937524093, -0.019462411607713274]}}, {"type": "Feature", "properties": {"norad_id": 59051, "name": "METEOR-M2 4", "group": "weather", "lat": -55.31114106551454, "lon": 110.77614574362092, "alt_km": 826.9986820510549, "timestamp": "2025-12-12T14:39:17.619193+00:00", "meta": {"OBJECT_NAME": "METEOR-M2 4", "OBJECT_ID": "2024-039A", "EPOCH": "2025-12-12T06:47:39.943680", "MEAN_MOTION": 14.22401172, "ECCENTRICITY": 0.00070631, "INCLINATION": 98.6765, "RA_OF_ASC_NODE": 303.1991, "ARG_OF_PERICENTER": 359.9236, "MEAN_ANOMALY": 0.1939, "EPHEMERIS_TYPE": 0, "CLASSIFICATION_TYPE": "U", "NORAD_CAT_ID": 59051, "ELEMENT_SET_NO": 999, "REV_AT_EPOCH": 9269, "BSTAR": 5.5773947e-05, "MEAN_MOTION_DOT": 8.1e-07, "MEAN_MOTION_DDOT": 0}, "tle": {"line1": "1 59051U 24039A   25346.28310120  .00000081  00000+0  55774-4 0  9995", "line2": "2 59051  98.6765 303.1991 0007063 359.9236   0.1939 14.22401172 92694"}}, "geometry": {"type": "Point", "coordinates": [110.77614574362092, -55.31114106551454]}}, {"type": "Feature", "properties": {"norad_id": 60133, "name": "GOES 19", "group": "weather", "lat": 0.010628504144931189, "lon": -133.8295949441836, "alt_km": 35785.93292172207, "timestamp": "2025-12-12T14:39:17.619204+00:00", "meta": {"OBJECT_NAME": "GOES 19", "OBJECT_ID": "2024-119A", "EPOCH": "2025-12-12T06:16:30.060192", "MEAN_MOTION": 1.00270909, "ECCENTRICITY": 0.00012818, "INCLINATION": 0.0386, "RA_OF_ASC_NODE": 138.7324, "ARG_OF_PERICENTER": 173.1034, "MEAN_ANOMALY": 148.314, "EPHEMERIS_TYPE": 0, "CLASSIFICATION_TYPE": "U", "NORAD_CAT_ID": 60133, "ELEMENT_SET_NO": 999, "REV_AT_EPOCH": 509, "BSTAR": 0, "MEAN_MOTION_DOT": -2.38e-06, "MEAN_MOTION_DDOT": 0}, "tle": {"line1": "1 60133U 24119A   25346.26145903 -.00000238  00000+0  00000+0 0  9992", "line2": "2 60133   0.0386 138.7324 0001281 173.1034 148.3140  1.00270909  5094"}}, "geometry": {"type": "Point", "coordinates": [-133.8295949441836, 0.010628504144931189]}}, {"type": "Feature", "properties": {"norad_id": 65815, "name": "FENGYUN 3H", "group": "weather", "lat": 62.318465810645215, "lon": 123.08925240430422, "alt_km": 819.1758578682138, "timestamp": "2025-12-12T14:39:17.619215+00:00", "meta": {"OBJECT_NAME": "FENGYUN 3H", "OBJECT_ID": "2025-219A", "EPOCH": "2025-12-12T07:20:38.728320", "MEAN_MOTION": 14.19904563, "ECCENTRICITY": 6.136e-05, "INCLINATION": 98.6584, "RA_OF_ASC_NODE": 285.9058, "ARG_OF_PERICENTER": 91.232, "MEAN_ANOMALY": 268.8927, "EPHEMERIS_TYPE": 0, "CLASSIFICATION_TYPE": "U", "NORAD_CAT_ID": 65815, "ELEMENT_SET_NO": 999, "REV_AT_EPOCH": 1086, "BSTAR": 0.00010480321, "MEAN_MOTION_DOT": 1.79e-06, "MEAN_MOTION_DDOT": 0}, "tle": {"line1": "1 65815U 25219A   25346.30600380  .00000179  00000+0  10480-3 0  9996", "line2": "2 65815  98.6584 285.9058 0000613  91.2320 268.8927 14.19904563 10860"}}, "geometry": {"type": "Point", "coordinates": [123.08925240430422, 62.318465810645215]}}]}